HADES-R (SO-124)
1 62690U 25009CK  25336.22549996  .00154330  00000-0  22897-2 0  9990
2 62690  97.3904  58.4728 0002077 220.7581 139.3518 15.54675419 49147
OTP-2
1 63235U 25052AB  25336.64133931  .00008607  00000-0  39220-3 0  9992
2 63235  97.4073 227.1557 0007992 122.7152 237.4855 15.20875005 39961
HADES-ICM (SO-125)
1 63492U 25052BN  25336.94115777  .00078388  00000-0  20957-2 0  9997
2 63492  97.4086 230.3521 0011450  99.8021 260.4518 15.37711582 40196
IONOSFERA-M 03
1 64876U 25155A   25337.21021448  .00000109  00000-0  69571-4 0  9993
2 64876  98.5769 299.3467 0002396  74.8507 285.2936 14.21437080 18563
IONOSFERA-M 04
1 64877U 25155B   25337.17489641  .00000123  00000-0  75649-4 0  9991
2 64877  98.5768 299.2321 0001751  73.3057 286.8312 14.21438168 18551
INNOSAT16 (RS92S7)
1 64878U 25155C   25336.63124385  .00005736  00000-0  24925-3 0  9998
2 64878  97.4313 300.1135 0011992 148.5940 211.6015 15.22616542 50733
GEOSCAN-6 (RS92S6)
1 64879U 25155D   25336.63849117  .00014448  00000-0  57752-3 0  9990
2 64879  97.4316 300.4272 0009629 139.7115 220.4838 15.25177384 50754
GEOSCAN 1 (RS92S1)
1 64880U 25155E   25336.62990104  .00016516  00000-0  65508-3 0  9990
2 64880  97.4319 300.4440 0009549 139.8850 220.3094 15.25406252 50756
239ALFEROV (RS61S)
1 64881U 25155F   25336.59683419  .00019188  00000-0  74253-3 0  9990
2 64881  97.4326 300.5074 0009242 139.1929 221.0004 15.26200707 50756
ASTROLINE-N1
1 64882U 25155G   25336.63450972  .00013103  00000-0  52600-3 0  9995
2 64882  97.4337 300.4526 0008970 139.6044 220.5861 15.25060976 50756
ASTROLINE-N2
1 64883U 25155H   25336.63485358  .00012869  00000-0  51602-3 0  9991
2 64883  97.4333 300.4451 0009151 138.5439 221.6495 15.25103874 50758
ASTROLINE-N3
1 64884U 25155J   25337.15883727  .00013768  00000-0  54526-3 0  9999
2 64884  97.4328 300.9764 0011485 132.8282 227.3923 15.25479372 50838
ASTROLINE-N4
1 64885U 25155K   25337.15151892  .00030784  00000-0  11027-2 0  9996
2 64885  97.4284 301.2164 0009763 126.8403 233.3734 15.28650366 50858
CSTP-4.3
1 64886U 25155L   25337.14886839  .00032595  00000-0  11610-2 0  9992
2 64886  97.4272 301.2138 0009896 127.1554 233.0591 15.28823645 50855
CSTP-4.2
1 64887U 25155M   25337.18270926  .00027644  00000-0  10136-2 0  9992
2 64887  97.4298 301.2025 0009781 126.7368 233.4770 15.27906179 50856
CSTP-4.1
1 64888U 25155N   25337.14528911  .00032452  00000-0  11519-2 0  9998
2 64888  97.4279 301.2318 0009792 124.3242 235.8926 15.28939549 50855
CSTP-4.4
1 64889U 25155P   25337.19267183  .00008268  00000-0  34395-3 0  9991
2 64889  97.4342 300.9359 0008733 136.0935 224.0997 15.23990024 50837
GEOSCAN 2 (RS92S2)
1 64890U 25155Q   25337.18695284  .00016212  00000-0  63621-3 0  9991
2 64890  97.4316 301.0635 0009291 126.4030 233.8067 15.25770190 50847
GEOSCAN-5 (RS92S5)
1 64891U 25155R   25337.15354166  .00018897  00000-0  72304-3 0  9999
2 64891  97.4320 301.1177 0007884 140.8940 219.2870 15.26590710 50840
GEOSCAN-4 (RS92S4)
1 64892U 25155S   25337.15106397  .00019294  00000-0  73677-3 0  9997
2 64892  97.4323 301.1241 0007880 141.5223 218.6578 15.26652558 50841
GEOSCAN-3 (RS92S3)
1 64893U 25155T   25337.19082398  .00024121  00000-0  90179-3 0  9997
2 64893  97.4319 301.2181 0007611 142.5980 217.5790 15.27309901 50851
INNOSAT3 (RS92S0)
1 64894U 25155U   25337.18330147  .00035881  00000-0  12511-2 0  9993
2 64894  97.4305 301.3717 0007256 139.7510 220.4268 15.29518534 50865
NAHID-2
1 64895U 25155V   25337.09373595  .00012673  00000-0  50875-3 0  9998
2 64895  97.4334 300.9016 0008833 137.3870 222.8055 15.25069053 50818
RSP-03
1 65732U 98067XL  25336.98231426  .00124452  00000-0  11971-2 0  9996
2 65732  51.6271 186.1351 0006831 192.2719 167.8111 15.65632487 11634
YOTSUBA-KULOVER
1 65941U 98067XN  25336.64603316  .00069349  00000-0  91622-3 0  9997
2 65941  51.6284 190.6440 0002140 164.2097 195.8962 15.57709356  8289
BOTAN
1 65942U 98067XP  25335.96627064  .00095633  00000-0  11467-2 0  9991
2 65942  51.6290 193.6047 0004543 166.4057 193.7060 15.60127991  8180
E-KAGAKU-1
1 65943U 98067XQ  25335.87597762  .00069131  00000-0  91791-3 0  9996
2 65943  51.6307 194.5023 0003749 145.4218 214.7019 15.57573003  8168
